{
  "type": "FeatureCollection",
  "features": [
    {
      "type": "Feature",
      "properties": {
        "norad_id": 43602,
        "name": "BEIDOU-3 M12 (C26)",
        "group": "beidou",
        "lat": -44.50827966924147,
        "lon": 52.1860583136236,
        "alt_km": 21557.989705774202,
        "timestamp": "2025-12-25T07:00:34.311291+00:00",
        "meta_object_name": "BEIDOU-3 M12 (C26)",
        "meta_object_id": "2018-067A",
        "meta_epoch": "2025-12-23T20:39:07.001280",
        "meta_mean_motion": 1.8622786,
        "meta_eccentricity": 0.00092419,
        "meta_inclination": 54.1836,
        "meta_ra_of_asc_node": 186.9857,
        "meta_arg_of_pericenter": 41.6842,
        "meta_mean_anomaly": 318.4207,
        "meta_ephemeris_type": 0,
        "meta_classification_type": "U",
        "meta_norad_cat_id": 43602,
        "meta_element_set_no": 999,
        "meta_rev_at_epoch": 4985,
        "meta_bstar": 0,
        "meta_mean_motion_dot": 1e-06,
        "meta_mean_motion_ddot": 0,
        "tle_line1": "1 43602U 18067A   25357.86049770  .00000100  00000+0  00000+0 0  9999",
        "tle_line2": "2 43602  54.1836 186.9857 0009241  41.6842 318.4207  1.86227860 49850"
      },
      "geometry": {
        "type": "Point",
        "coordinates": [
          52.1860583136236,
          -44.50827966924147
        ]
      }
    },
    {
      "type": "Feature",
      "properties": {
        "norad_id": 43603,
        "name": "BEIDOU-3 M11 (C25)",
        "group": "beidou",
        "lat": 24.117343893171917,
        "lon": -11.968852086648372,
        "alt_km": 21531.303015784608,
        "timestamp": "2025-12-25T07:00:34.311302+00:00",
        "meta_object_name": "BEIDOU-3 M11 (C25)",
        "meta_object_id": "2018-067B",
        "meta_epoch": "2025-12-24T12:46:04.310976",
        "meta_mean_motion": 1.86227356,
        "meta_eccentricity": 0.00056287,
        "meta_inclination": 54.181,
        "meta_ra_of_asc_node": 186.927,
        "meta_arg_of_pericenter": 37.873,
        "meta_mean_anomaly": 322.1992,
        "meta_ephemeris_type": 0,
        "meta_classification_type": "U",
        "meta_norad_cat_id": 43603,
        "meta_element_set_no": 999,
        "meta_rev_at_epoch": 4989,
        "meta_bstar": 0,
        "meta_mean_motion_dot": 1.05e-06,
        "meta_mean_motion_ddot": 0,
        "tle_line1": "1 43603U 18067B   25358.53199434  .00000105  00000+0  00000+0 0  9993",
        "tle_line2": "2 43603  54.1810 186.9270 0005628  37.8730 322.1992  1.86227356 49897"
      },
      "geometry": {
        "type": "Point",
        "coordinates": [
          -11.968852086648372,
          24.117343893171917
        ]
      }
    },
    {
      "type": "Feature",
      "properties": {
        "norad_id": 43622,
        "name": "BEIDOU-3 M13 (C32)",
        "group": "beidou",
        "lat": 1.089627119109215,
        "lon": -112.2995707387745,
        "alt_km": 21536.80625080212,
        "timestamp": "2025-12-25T07:00:34.311314+00:00",
        "meta_object_name": "BEIDOU-3 M13 (C32)",
        "meta_object_id": "2018-072A",
        "meta_epoch": "2025-12-22T08:10:31.412640",
        "meta_mean_motion": 1.86231166,
        "meta_eccentricity": 0.00064111,
        "meta_inclination": 56.4667,
        "meta_ra_of_asc_node": 68.5024,
        "meta_arg_of_pericenter": 297.4685,
        "meta_mean_anomaly": 62.5173,
        "meta_ephemeris_type": 0,
        "meta_classification_type": "U",
        "meta_norad_cat_id": 43622,
        "meta_element_set_no": 999,
        "meta_rev_at_epoch": 4936,
        "meta_bstar": 0,
        "meta_mean_motion_dot": -2.9e-07,
        "meta_mean_motion_ddot": 0,
        "tle_line1": "1 43622U 18072A   25356.34064135 -.00000029  00000+0  00000+0 0  9992",
        "tle_line2": "2 43622  56.4667  68.5024 0006411 297.4685  62.5173  1.86231166 49361"
      },
      "geometry": {
        "type": "Point",
        "coordinates": [
          -112.2995707387745,
          1.089627119109215
        ]
      }
    },
    {
      "type": "Feature",
      "properties": {
        "norad_id": 43623,
        "name": "BEIDOU-3 M14 (C33)",
        "group": "beidou",
        "lat": -56.47185254459213,
        "lon": -23.50778131984579,
        "alt_km": 21528.763178130637,
        "timestamp": "2025-12-25T07:00:34.311325+00:00",
        "meta_object_name": "BEIDOU-3 M14 (C33)",
        "meta_object_id": "2018-072B",
        "meta_epoch": "2025-12-23T06:43:13.861056",
        "meta_mean_motion": 1.86231163,
        "meta_eccentricity": 0.00035931,
        "meta_inclination": 56.4696,
        "meta_ra_of_asc_node": 68.4654,
        "meta_arg_of_pericenter": 327.0772,
        "meta_mean_anomaly": 32.9541,
        "meta_ephemeris_type": 0,
        "meta_classification_type": "U",
        "meta_norad_cat_id": 43623,
        "meta_element_set_no": 999,
        "meta_rev_at_epoch": 4937,
        "meta_bstar": 0,
        "meta_mean_motion_dot": -2.6e-07,
        "meta_mean_motion_ddot": 0,
        "tle_line1": "1 43623U 18072B   25357.28002154 -.00000026  00000+0  00000+0 0  9997",
        "tle_line2": "2 43623  56.4696  68.4654 0003593 327.0772  32.9541  1.86231163 49375"
      },
      "geometry": {
        "type": "Point",
        "coordinates": [
          -23.50778131984579,
          -56.47185254459213
        ]
      }
    },
    {
      "type": "Feature",
      "properties": {
        "norad_id": 43647,
        "name": "BEIDOU-3 M16 (C35)",
        "group": "beidou",
        "lat": 13.411641802910584,
        "lon": 116.18619970788602,
        "alt_km": 21543.004509168364,
        "timestamp": "2025-12-25T07:00:34.311356+00:00",
        "meta_object_name": "BEIDOU-3 M16 (C35)",
        "meta_object_id": "2018-078A",
        "meta_epoch": "2025-12-24T12:16:42.113856",
        "meta_mean_motion": 1.86232278,
        "meta_eccentricity": 0.00074637,
        "meta_inclination": 54.251,
        "meta_ra_of_asc_node": 306.1099,
        "meta_arg_of_pericenter": 20.5002,
        "meta_mean_anomaly": 339.5379,
        "meta_ephemeris_type": 0,
        "meta_classification_type": "U",
        "meta_norad_cat_id": 43647,
        "meta_element_set_no": 999,
        "meta_rev_at_epoch": 4890,
        "meta_bstar": 0,
        "meta_mean_motion_dot": -5.2e-07,
        "meta_mean_motion_ddot": 0,
        "tle_line1": "1 43647U 18078A   25358.51159854 -.00000052  00000+0  00000+0 0  9995",
        "tle_line2": "2 43647  54.2510 306.1099 0007463  20.5002 339.5379  1.86232278 48909"
      },
      "geometry": {
        "type": "Point",
        "coordinates": [
          116.18619970788602,
          13.411641802910584
        ]
      }
    },
    {
      "type": "Feature",
      "properties": {
        "norad_id": 43648,
        "name": "BEIDOU-3 M15 (C34)",
        "group": "beidou",
        "lat": 52.176363579673364,
        "lon": 14.040086469296368,
        "alt_km": 21515.624083644067,
        "timestamp": "2025-12-25T07:00:34.311371+00:00",
        "meta_object_name": "BEIDOU-3 M15 (C34)",
        "meta_object_id": "2018-078B",
        "meta_epoch": "2025-12-24T02:29:34.317888",
        "meta_mean_motion": 1.86232361,
        "meta_eccentricity": 0.0004049,
        "meta_inclination": 54.2473,
        "meta_ra_of_asc_node": 306.125,
        "meta_arg_of_pericenter": 19.767,
        "meta_mean_anomaly": 340.256,
        "meta_ephemeris_type": 0,
        "meta_classification_type": "U",
        "meta_norad_cat_id": 43648,
        "meta_element_set_no": 999,
        "meta_rev_at_epoch": 4891,
        "meta_bstar": 0,
        "meta_mean_motion_dot": -5.2e-07,
        "meta_mean_motion_ddot": 0,
        "tle_line1": "1 43648U 18078B   25358.10386942 -.00000052  00000+0  00000+0 0  9991",
        "tle_line2": "2 43648  54.2473 306.1250 0004049  19.7670 340.2560  1.86232361 48910"
      },
      "geometry": {
        "type": "Point",
        "coordinates": [
          14.040086469296368,
          52.176363579673364
        ]
      }
    },
    {
      "type": "Feature",
      "properties": {
        "norad_id": 43683,
        "name": "BEIDOU-3 G1 (C59)",
        "group": "beidou",
        "lat": -2.2131421139342717,
        "lon": -20.889282268185877,
        "alt_km": 35793.78246361848,
        "timestamp": "2025-12-25T07:00:34.311383+00:00",
        "meta_object_name": "BEIDOU-3 G1 (C59)",
        "meta_object_id": "2018-085A",
        "meta_epoch": "2025-12-24T22:19:33.057408",
        "meta_mean_motion": 1.00266595,
        "meta_eccentricity": 0.00014387,
        "meta_inclination": 2.6365,
        "meta_ra_of_asc_node": 102.6072,
        "meta_arg_of_pericenter": 44.2088,
        "meta_mean_anomaly": 61.7239,
        "meta_ephemeris_type": 0,
        "meta_classification_type": "U",
        "meta_norad_cat_id": 43683,
        "meta_element_set_no": 999,
        "meta_rev_at_epoch": 2631,
        "meta_bstar": 0,
        "meta_mean_motion_dot": -2.58e-06,
        "meta_mean_motion_ddot": 0,
        "tle_line1": "1 43683U 18085A   25358.93024372 -.00000258  00000+0  00000+0 0  9993",
        "tle_line2": "2 43683   2.6365 102.6072 0001438  44.2088  61.7239  1.00266595 26312"
      },
      "geometry": {
        "type": "Point",
        "coordinates": [
          -20.889282268185877,
          -2.2131421139342717
        ]
      }
    }
  ]
}